OBJECT_NAME,OBJECT_ID,EPOCH,MEAN_MOTION,ECCENTRICITY,INCLINATION,RA_OF_ASC_NODE,ARG_OF_PERICENTER,MEAN_ANOMALY,EPHEMERIS_TYPE,CLASSIFICATION_TYPE,NORAD_CAT_ID,ELEMENT_SET_NO,REV_AT_EPOCH,BSTAR,MEAN_MOTION_DOT,MEAN_MOTION_DDOT
STARLINK-35759,2026-117J,2026-06-17T16:11:41.213184,15.82057442,.0000788,53.1569,241.0219,93.2044,266.9069,0,U,69246,999,305,.93579E-3,.198956E-2,0
STARLINK-37238,2026-117K,2026-06-17T16:05:17.489184,15.82036333,.0000973,53.1569,240.9915,98.1029,262.0105,0,U,69247,999,305,.57477E-3,.120697E-2,0
STARLINK-37412,2026-117L,2026-06-17T16:00:26.220096,15.82046207,.0000942,53.1569,240.9688,105.8871,254.2256,0,U,69248,999,305,.68183E-3,.143764E-2,0
STARLINK-37398,2026-117M,2026-06-17T16:07:08.706720,15.80923048,.0000795,53.1576,241.0003,92.0272,268.0842,0,U,69249,999,305,.616E-3,.122908E-2,0
STARLINK-37499,2026-117N,2026-06-17T15:57:57.936960,15.82034596,.0000927,53.1568,240.9564,86.1316,273.9813,0,U,69250,999,305,.58168E-3,.122168E-2,0
STARLINK-37489,2026-117P,2026-06-17T15:55:25.752000,15.82067811,.0000795,53.1571,240.9461,102.7921,257.3191,0,U,69251,999,305,.97205E-3,.206986E-2,0
STARLINK-37434,2026-117Q,2026-06-17T15:51:09.164736,15.82033365,.000093,53.1569,240.9243,106.2645,253.8480,0,U,69252,999,305,.56724E-3,.119067E-2,0
STARLINK-37368,2026-117R,2026-06-17T15:41:26.495232,15.82028959,.0000889,53.1572,240.8784,90.5405,269.5720,0,U,69253,999,305,.48014E-3,.100435E-2,0
STARLINK-37517,2026-117S,2026-06-17T15:39:32.423904,15.82044264,.0000809,53.1570,240.8700,131.6385,228.4708,0,U,69254,999,305,.72303E-3,.152638E-2,0
STARLINK-37378,2026-117T,2026-06-17T15:39:03.891168,15.82151938,.0001294,53.1567,240.8686,21.4298,338.6780,0,U,69255,999,305,.20043E-2,.44113E-2,0
STARLINK-37396,2026-117U,2026-06-17T17:06:30.369600,15.82038611,.0000802,53.1567,240.5317,85.3160,274.7954,0,U,69256,999,306,.62397E-3,.131265E-2,0
STARLINK-37508,2026-117V,2026-06-17T15:39:06.998112,15.80859775,.000113,53.1574,240.8651,133.7096,226.4020,0,U,69257,999,305,-.17214E-3,-.34518E-3,0
STARLINK-37276,2026-117W,2026-06-17T16:31:57.358848,15.76753990,.0015407,53.1569,240.3665,119.5300,240.7259,0,U,69258,999,306,-.32766E-1,-.4562456E-1,0
STARLINK-37518,2026-117X,2026-06-17T16:33:06.192864,15.80892884,.0001613,53.1567,240.3730,58.4994,301.6186,0,U,69259,999,306,.36233E-3,.71475E-3,0
STARLINK-37478,2026-117Y,2026-06-17T16:33:25.371072,15.80927419,.0000917,53.1571,240.3756,83.9366,276.1761,0,U,69260,999,306,.59068E-3,.117779E-2,0
STARLINK-37506,2026-117Z,2026-06-17T16:32:43.327968,15.80927251,.0001253,53.1568,240.3714,75.3017,284.8145,0,U,69261,999,306,.69071E-3,.138173E-2,0
STARLINK-37503,2026-117AA,2026-06-17T16:32:21.058368,15.80946401,.0001175,53.1569,240.3705,78.7993,281.3161,0,U,69262,999,306,.91486E-3,.184394E-2,0
STARLINK-37502,2026-117AB,2026-06-17T20:00:01.999008,15.80894184,.0001037,53.1570,239.6412,79.4817,24.8200,0,U,69263,999,428,-.14892E-3,-.30016E-3,0
STARLINK-37486,2026-117AC,2026-06-17T16:29:51.195840,15.80917642,.0000758,53.1571,240.3569,68.4684,291.6420,0,U,69264,999,306,.55429E-3,.110335E-2,0
STARLINK-37435,2026-117AD,2026-06-17T20:00:01.999008,15.80885068,.00011,53.1571,239.6434,71.3689,31.4177,0,U,69265,999,428,-.12855E-3,-.26009E-3,0
STARLINK-37464,2026-117AE,2026-06-17T16:25:04.562976,15.82023769,.0000854,53.1569,240.3341,71.4665,288.6451,0,U,69266,999,306,.49785E-3,.104186E-2,0
KUIPER-00282,2026-118A,2026-06-17T20:57:59.408064,15.34193204,.0012132,51.8594,50.2637,183.9458,176.1433,0,U,69267,999,408,.4744E-3,.15625E-3,0
KUIPER-00383,2026-118B,2026-06-17T19:19:45.810048,15.34268103,.0010364,51.8600,50.5591,183.9657,176.1248,0,U,69268,999,407,.65278E-3,.21701E-3,0
KUIPER-00527,2026-118C,2026-06-17T19:12:46.006272,15.34762379,.0010088,51.8626,50.5303,176.9558,183.1491,0,U,69269,999,407,.8886E-4,.2661E-4,0
KUIPER-00562,2026-118D,2026-06-17T19:56:20.128128,15.38647989,.0001799,51.8721,49.9931,118.0696,242.0473,0,U,69270,999,408,.48075E-3,.18293E-3,0
KUIPER-00570,2026-118E,2026-06-17T19:16:11.805024,15.34616270,.0011646,51.8581,50.5397,186.5609,173.5225,0,U,69271,999,407,.52894E-3,.17707E-3,0
KUIPER-00572,2026-118F,2026-06-17T18:51:25.915104,15.37030596,.0007398,51.8673,50.4403,172.9186,187.1906,0,U,69272,999,407,.46193E-3,.16656E-3,0
KUIPER-00581,2026-118G,2026-06-17T18:57:18.415008,15.36658408,.000883,51.8662,50.4653,176.6246,183.4801,0,U,69273,999,416,.42054E-3,.14946E-3,0
KUIPER-00584,2026-118H,2026-06-17T20:00:01.999008,15.34340257,.0011647,51.8612,50.4246,189.5820,325.5450,0,U,69274,999,267,-.4725E-3,-.16336E-3,0
KUIPER-00587,2026-118J,2026-06-17T18:56:20.914080,15.36706660,.0008051,51.8637,50.4587,179.8350,180.2640,0,U,69275,999,407,.45651E-3,.16283E-3,0
